NORAD_CAT_ID,OBJECT_NAME,OBJECT_TYPE,EPOCH,MEAN_MOTION,ECCENTRICITY,INCLINATION,RA_OF_ASC_NODE,ARG_OF_PERICENTER,MEAN_ANOMALY,BSTAR,MEAN_MOTION_DOT,MEAN_MOTION_DDOT,TLE_LINE0,TLE_LINE1,TLE_LINE2,SEMIMAJOR_AXIS,PERIOD,APOGEE,PERIGEE,DECAYED
51815.0,STARLINK-3604,PAYLOAD,2023-02-16 21:23:39,15.08868166,0.0001071,53.2156,302.628,96.8987,263.2127,0.00068268,0.00010602,0.0,0 STARLINK-3604,1 51815U 22017AZ  23047.89142553  .00010602  00000-0  68268-3 0  9997,2 51815  53.2156 302.6280 0001071  96.8987 263.2127 15.08868166 55485,6917.794,95.436,540.4,538.918,0.0
51815.0,STARLINK-3604,PAYLOAD,2023-02-17 02:09:49,15.08837853,0.0001141,53.2151,301.7347,113.2067,246.9045,0.00045681,6.989e-05,0.0,0 STARLINK-3604,1 51815U 22017AZ  23048.09015980  .00006989  00000-0  45681-3 0  9990,2 51815  53.2151 301.7347 0001141 113.2067 246.9045 15.08837853 55638,6917.887,95.438,540.541,538.963,0.0
51815.0,STARLINK-3604,PAYLOAD,2023-02-17 10:06:46,15.08816713,0.0001484,53.2142,300.2508,90.9182,269.198,0.00080481,0.00012536,0.0,0 STARLINK-3604,1 51815U 22017AZ  23048.42137132  .00012536  00000-0  80481-3 0  9993,2 51815  53.2142 300.2508 0001484  90.9182 269.1980 15.08816713 55682,6917.952,95.439,540.843,538.79,0.0
51815.0,STARLINK-3604,PAYLOAD,2023-02-17 21:14:28,15.08821828,0.0001058,53.2138,298.1701,95.1585,264.9527,0.000567,8.743e-05,0.0,0 STARLINK-3604,1 51815U 22017AZ  23048.88505660  .00008743  00000-0  56700-3 0  9990,2 51815  53.2138 298.1701 0001058  95.1585 264.9527 15.08821828 55636,6917.936,95.439,540.533,539.069,0.0
51815.0,STARLINK-3604,PAYLOAD,2023-02-18 09:57:34,15.08836669,0.0001381,53.2152,295.7884,99.2443,260.8705,0.00075011,0.00011669,0.0,0 STARLINK-3604,1 51815U 22017AZ  23049.41497944  .00011669  00000-0  75011-3 0  9992,2 51815  53.2152 295.7884 0001381  99.2443 260.8705 15.08836669 55715,6917.891,95.438,540.711,538.8,0.0
51815.0,STARLINK-3604,PAYLOAD,2023-02-18 16:19:06,15.08846661,0.000128,53.215,294.5989,99.8011,260.3126,0.00089905,0.00014052,0.0,0 STARLINK-3604,1 51815U 22017AZ  23049.67993808  .00014052  00000-0  89905-3 0  9996,2 51815  53.2150 294.5989 0001280  99.8011 260.3126 15.08846661 55873,6917.86,95.437,540.611,538.84,0.0
51815.0,STARLINK-3604,PAYLOAD,2023-02-18 22:40:38,15.08859797,0.0001211,53.2144,293.4102,97.8541,262.2589,0.0010294,0.00016142,0.0,0 STARLINK-3604,1 51815U 22017AZ  23049.94489373  .00016142  00000-0  10294-2 0  9999,2 51815  53.2144 293.4102 0001211  97.8541 262.2589 15.08859797 55790,6917.82,95.436,540.523,538.847,0.0
51815.0,STARLINK-3604,PAYLOAD,2023-02-19 19:20:39,15.08855917,0.0001096,53.214,289.5446,93.2688,266.8429,0.00031154,4.676e-05,0.0,0 STARLINK-3604,1 51815U 22017AZ  23050.80600723  .00004676  00000-0  31154-3 0  9998,2 51815  53.2140 289.5446 0001096  93.2688 266.8429 15.08855917 56048,6917.832,95.437,540.455,538.939,0.0
51815.0,STARLINK-3604,PAYLOAD,2023-02-19 22:31:25,15.08862146,0.0001111,53.2142,288.951,82.0765,278.0353,0.0004818,7.393e-05,0.0,0 STARLINK-3604,1 51815U 22017AZ  23050.93848559  .00007393  00000-0  48180-3 0  9999,2 51815  53.2142 288.9510 0001111  82.0765 278.0353 15.08862146 55946,6917.813,95.436,540.446,538.909,0.0
51815.0,STARLINK-3604,PAYLOAD,2023-02-20 22:22:11,15.08829263,0.0001394,53.2139,284.4891,104.7927,255.322,-0.00076745,-0.00012477,0.0,0 STARLINK-3604,1 51815U 22017AZ  23051.93207555 -.00012477  00000-0 -76745-3 0  9994,2 51815  53.2139 284.4891 0001394 104.7927 255.3220 15.08829263 56215,6917.913,95.438,540.743,538.814,0.0
51815.0,STARLINK-3604,PAYLOAD,2023-02-21 14:16:03,15.08835958,0.0001304,53.2142,281.5133,97.0958,263.0182,-0.00020863,-3.606e-05,0.0,0 STARLINK-3604,1 51815U 22017AZ  23052.59448068 -.00003606  00000-0 -20863-3 0  9997,2 51815  53.2142 281.5133 0001304  97.0958 263.0182 15.08835958 56193,6917.893,95.438,540.66,538.856,0.0
51815.0,STARLINK-3604,PAYLOAD,2023-02-21 19:02:12,15.08844652,0.0001416,53.2135,280.6225,101.7245,258.3906,3.4057e-05,2.54e-06,0.0,0 STARLINK-3604,1 51815U 22017AZ  23052.79319731  .00000254  00000-0  34057-4 0  9998,2 51815  53.2135 280.6225 0001416 101.7245 258.3906 15.08844652 56342,6917.866,95.437,540.711,538.752,0.0
51815.0,STARLINK-3604,PAYLOAD,2023-02-21 22:12:58,15.08847292,0.0001376,53.2136,280.0281,105.7654,254.349,0.0002912,4.35e-05,0.0,0 STARLINK-3604,1 51815U 22017AZ  23052.92567722  .00004350  00000-0  29120-3 0  9993,2 51815  53.2136 280.0281 0001376 105.7654 254.3490 15.08847292 56248,6917.858,95.437,540.675,538.771,0.0
51815.0,STARLINK-3604,PAYLOAD,2023-02-22 14:06:50,15.08836372,0.0002128,53.2131,277.0521,104.5275,255.5953,0.00022759,3.335e-05,0.0,0 STARLINK-3604,1 51815U 22017AZ  23053.58808776  .00003335  00000-0  22759-3 0  9996,2 51815  53.2131 277.0521 0002128 104.5275 255.5953 15.08836372 56343,6917.891,95.438,541.229,538.284,0.0
51815.0,STARLINK-3604,PAYLOAD,2023-02-22 15:42:13,15.08836576,0.0002028,53.213,276.7547,109.5057,250.6154,0.00018115,2.596e-05,0.0,0 STARLINK-3604,1 51815U 22017AZ  23053.65432710  .00002596  00000-0  18115-3 0  9994,2 51815  53.2130 276.7547 0002028 109.5057 250.6154 15.08836576 56477,6917.891,95.438,541.159,538.353,0.0
51815.0,STARLINK-3604,PAYLOAD,2023-02-22 22:03:46,15.08832823,0.0001293,53.2132,275.5671,98.5921,261.5217,0.00030837,4.622e-05,0.0,0 STARLINK-3604,1 51815U 22017AZ  23053.91929038  .00004622  00000-0  30837-3 0  9994,2 51815  53.2132 275.5671 0001293  98.5921 261.5217 15.08832823 56397,6917.902,95.438,540.662,538.873,0.0
51815.0,STARLINK-3604,PAYLOAD,2023-02-23 13:57:38,15.08846625,0.0001467,53.2126,272.5926,105.3614,254.754,0.00091144,0.0001425,0.0,0 STARLINK-3604,1 51815U 22017AZ  23054.58169201  .00014250  00000-0  91144-3 0  9992,2 51815  53.2126 272.5926 0001467 105.3614 254.7540 15.08846625 56498,6917.86,95.437,540.74,538.71,0.0
51815.0,STARLINK-3604,PAYLOAD,2023-02-23 20:19:10,15.08854732,0.000129,53.2123,271.403,103.5177,256.5959,0.00096053,0.00015038,0.0,0 STARLINK-3604,1 51815U 22017AZ  23054.84664943  .00015038  00000-0  96053-3 0  9993,2 51815  53.2123 271.4030 0001290 103.5177 256.5959 15.08854732 56534,6917.835,95.437,540.593,538.808,0.0
51815.0,STARLINK-3604,PAYLOAD,2023-02-23 23:29:56,15.08859823,0.0001371,53.2127,270.8086,98.0877,262.0271,0.00099963,0.00015666,0.0,0 STARLINK-3604,1 51815U 22017AZ  23054.97912808  .00015666  00000-0  99963-3 0  9993,2 51815  53.2127 270.8086 0001371  98.0877 262.0271 15.08859823 56677,6917.82,95.436,540.633,538.736,0.0
51815.0,STARLINK-3604,PAYLOAD,2023-02-24 20:09:57,15.088492,0.0001689,53.2123,266.9421,92.1356,267.9829,0.00047678,7.31e-05,0.0,0 STARLINK-3604,1 51815U 22017AZ  23055.84025007  .00007310  00000-0  47678-3 0  9999,2 51815  53.2123 266.9421 0001689  92.1356 267.9829 15.08849200 56807,6917.852,95.437,540.886,538.549,0.0
51815.0,STARLINK-3604,PAYLOAD,2023-02-24 23:20:43,15.08846506,0.0001508,53.2129,266.3477,93.1166,266.9999,0.00042394,6.467e-05,0.0,0 STARLINK-3604,1 51815U 22017AZ  23055.97273034  .00006467  00000-0  42394-3 0  9990,2 51815  53.2129 266.3477 0001508  93.1166 266.9999 15.08846506 56700,6917.861,95.437,540.769,538.682,0.0
51815.0,STARLINK-3604,PAYLOAD,2023-02-25 20:00:45,15.08837339,0.0001542,53.2125,262.48,87.8917,272.2252,0.00032976,4.964e-05,0.0,0 STARLINK-3604,1 51815U 22017AZ  23056.83385498  .00004964  00000-0  32976-3 0  9999,2 51815  53.2125 262.4800 0001542  87.8917 272.2252 15.08837339 56958,6917.889,95.438,540.82,538.687,0.0
51815.0,STARLINK-3604,PAYLOAD,2023-02-26 13:29:59,15.08852875,0.0001477,53.214,259.2079,87.6484,272.4677,0.00058467,9.033e-05,0.0,0 STARLINK-3604,1 51815U 22017AZ  23057.56249165  .00009033  00000-0  58467-3 0  9995,2 51815  53.2140 259.2079 0001477  87.6484 272.4677 15.08852875 56945,6917.841,95.437,540.728,538.684,0.0
51815.0,STARLINK-3604,PAYLOAD,2023-02-26 19:51:31,15.0886158,0.0001504,53.2139,258.0192,85.9685,274.1479,0.0007295,0.00011348,0.0,0 STARLINK-3604,1 51815U 22017AZ  23057.82744785  .00011348  00000-0  72950-3 0  9997,2 51815  53.2139 258.0192 0001504  85.9685 274.1479 15.08861580 57102,6917.814,95.436,540.72,538.639,0.0
51815.0,STARLINK-3604,PAYLOAD,2023-02-26 23:02:17,15.08861882,0.0001519,53.2135,257.4248,85.1545,274.9621,0.00066209,0.00010271,0.0,0 STARLINK-3604,1 51815U 22017AZ  23057.95992628  .00010271  00000-0  66209-3 0  9996,2 51815  53.2135 257.4248 0001519  85.1545 274.9621 15.08861882 57007,6917.814,95.436,540.729,538.628,0.0
51815.0,STARLINK-3604,PAYLOAD,2023-02-27 19:42:17,15.08871838,0.000116,53.2139,253.5593,87.4191,272.6934,0.0011703,0.00018403,0.0,0 STARLINK-3604,1 51815U 22017AZ  23058.82104037  .00018403  00000-0  11703-2 0  9995,2 51815  53.2139 253.5593 0001160  87.4191 272.6934 15.08871838 57256,6917.783,95.436,540.451,538.846,0.0
51815.0,STARLINK-3604,PAYLOAD,2023-02-28 11:36:10,15.08835221,0.0001544,53.2139,250.5856,84.6334,275.4834,0.00044297,6.768e-05,0.0,0 STARLINK-3604,1 51815U 22017AZ  23059.48344967  .00006768  00000-0  44297-3 0  9992,2 51815  53.2139 250.5856 0001544  84.6334 275.4834 15.08835221 57356,6917.895,95.438,540.828,538.692,0.0
51815.0,STARLINK-3604,PAYLOAD,2023-02-28 13:11:33,15.0882999,0.0001508,53.2143,250.2869,83.7031,276.4133,0.00029454,4.401e-05,0.0,0 STARLINK-3604,1 51815U 22017AZ  23059.54969166  .00004401  00000-0  29454-3 0  9993,2 51815  53.2143 250.2869 0001508  83.7031 276.4133 15.08829990 57243,6917.911,95.438,540.819,538.733,0.0
51815.0,STARLINK-3604,PAYLOAD,2023-02-28 19:33:06,15.08820896,0.0001448,53.2142,249.0981,84.3534,275.7623,-0.00015344,-2.728e-05,0.0,0 STARLINK-3604,1 51815U 22017AZ  23059.81465624 -.00002728  00000-0 -15344-3 0  9998,2 51815  53.2142 249.0981 0001448  84.3534 275.7623 15.08820896 57287,6917.939,95.439,540.806,538.802,0.0
51815.0,STARLINK-3604,PAYLOAD,2023-03-01 19:23:53,15.08837433,0.0001638,53.2135,244.6384,79.8486,280.269,0.00036453,5.518e-05,0.0,0 STARLINK-3604,1 51815U 22017AZ  23060.80826118  .00005518  00000-0  36453-3 0  9990,2 51815  53.2135 244.6384 0001638  79.8486 280.2690 15.08837433 57553,6917.888,95.438,540.886,538.62,0.0
